OBJECT_NAME,OBJECT_ID,EPOCH,MEAN_MOTION,ECCENTRICITY,INCLINATION,RA_OF_ASC_NODE,ARG_OF_PERICENTER,MEAN_ANOMALY,EPHEMERIS_TYPE,CLASSIFICATION_TYPE,NORAD_CAT_ID,ELEMENT_SET_NO,REV_AT_EPOCH,BSTAR,MEAN_MOTION_DOT,MEAN_MOTION_DDOT
ONEWEB-0643,2023-029M,2026-05-25T03:45:24.420960,13.14502093,.0001174,87.8931,294.3250,105.7149,254.4111,0,U,55807,999,15636,.30687E-3,.127E-5,0
ONEWEB-0644,2023-029N,2026-05-25T04:43:26.461056,13.19725737,.0001437,87.9149,309.5622,92.6911,267.4386,0,U,55808,999,15587,-.15304E-3,-.48E-6,0
ONEWEB-0645,2023-029P,2026-05-24T21:58:35.394816,13.19726782,.0001619,87.9149,309.6153,78.4042,281.7272,0,U,55809,999,15583,-.53267E-4,-.8E-7,0
ONEWEB-0646,2023-029Q,2026-05-25T03:51:09.232128,13.19725847,.0001509,87.9150,309.5664,92.8091,267.3214,0,U,55810,999,15585,.97133E-4,.52E-6,0
ONEWEB-0648,2023-029R,2026-05-25T02:59:43.977120,13.14504666,.0001272,87.8943,294.3023,67.8136,292.3129,0,U,55811,999,15636,-.27517E-3,-.89E-6,0
ONEWEB-0649,2023-029S,2026-05-25T04:27:32.193792,13.19726113,.0001637,87.9151,309.5591,86.5088,273.6231,0,U,55812,999,15589,.21955E-3,.101E-5,0
ONEWEB-0650,2023-029T,2026-05-25T04:20:43.037088,13.19725732,.0001357,87.9149,309.5626,89.7444,270.3844,0,U,55813,999,15586,.10926E-3,.57E-6,0
ONEWEB-0652,2023-029U,2026-05-25T02:32:20.264640,13.14504191,.0001937,87.8935,294.3148,100.3179,259.8170,0,U,55814,999,15633,.37581E-3,.152E-5,0
ONEWEB-0653,2023-029V,2026-05-25T03:59:05.773056,13.14501774,.0001887,87.8942,294.3000,95.6525,264.4820,0,U,55815,999,15637,.6155E-3,.241E-5,0
ONEWEB-0654,2023-029W,2026-05-25T03:52:15.520800,13.14502106,.0002189,87.8941,294.2972,99.2138,260.9240,0,U,55816,999,15639,.41244E-3,.166E-5,0
ONEWEB-0656,2023-029X,2026-05-24T19:05:37.510656,13.20771317,.0002326,87.9178,279.0929,102.0931,258.0463,0,U,55817,999,15806,.23372351E-4,.22E-6,0
ONEWEB-0657,2023-029Y,2026-05-25T04:13:53.787072,13.19726055,.0002045,87.9150,309.5621,113.8105,246.3243,0,U,55818,999,15587,.1599E-3,.77E-6,0
ONEWEB-0658,2023-029Z,2026-05-25T04:07:04.238112,13.19726458,.0001382,87.9158,309.5367,91.4917,268.6374,0,U,55819,999,15588,.27687E-3,.124E-5,0
ONEWEB-0660,2023-029AA,2026-05-25T03:20:16.557792,13.14501878,.0001759,87.8947,294.2928,86.6963,273.4368,0,U,55820,999,15637,-.51999E-3,-.18E-5,0
ONEWEB-0661,2023-029AB,2026-05-25T04:10:31.046016,13.14501474,.0001885,87.8931,294.3345,87.5114,272.6231,0,U,55821,999,15636,.53757E-3,.212E-5,0
ONEWEB-0662,2023-029AC,2026-05-25T03:11:07.788192,13.14501447,.0001758,87.8931,294.3492,86.6894,273.4437,0,U,55822,999,15640,-.55265E-3,-.192E-5,0
ONEWEB-0663,2023-029AD,2026-05-25T03:12:55.378656,13.20867351,.0001567,87.9178,279.0978,88.1048,272.0265,0,U,55823,999,15810,-.32252E-4,0,0
ONEWEB-0664,2023-029AE,2026-05-24T15:08:00.820320,13.20771288,.00021998,87.9161,279.1817,88.3996,271.7389,0,U,55824,999,15803,.28876728E-3,.13E-5,0
ONEWEB-0665,2023-029AF,2026-05-25T04:05:57.444000,13.14501630,.0001665,87.8934,294.3159,88.1752,271.9568,0,U,55825,999,15638,.74075E-3,.287E-5,0
ONEWEB-0666,2023-029AG,2026-05-25T01:52:50.729952,13.20772701,.0002086,87.9163,279.0821,119.1856,240.9486,0,U,55826,999,15810,-.13706E-2,-.544E-5,0
ONEWEB-0667,2023-029AH,2026-05-24T22:07:26.214816,13.20768894,.0001868,87.9181,279.0679,93.5339,266.6008,0,U,55827,999,15807,-.22979E-3,-.8E-6,0
ONEWEB-0669,2023-029AJ,2026-05-25T01:38:19.327200,13.20770438,.0002445,87.9171,279.0516,97.8408,262.3003,0,U,55828,999,15809,-.26028E-4,.2E-7,0
ONEWEB-0670,2023-029AK,2026-05-25T03:33:58.644288,13.14501851,.0002025,87.8930,294.3379,86.5182,273.6179,0,U,55829,999,15640,-.76895E-4,-.16E-6,0
ONEWEB-0671,2023-029AL,2026-05-25T04:00:13.808736,13.19726743,.0001795,87.9149,309.5654,87.8933,272.2405,0,U,55830,999,15586,.91152E-4,.49E-6,0
ONEWEB-0672,2023-029AM,2026-05-25T03:20:08.113056,13.20770947,.0002083,87.9175,279.0302,105.0439,255.0925,0,U,55831,999,15810,-.20232E-4,.5E-7,0
ONEWEB-0673,2023-029AN,2026-05-24T23:48:54.680256,13.19722937,.0002026,87.9168,309.5893,101.0866,259.0495,0,U,55832,999,15584,-.62568E-5,.1E-6,0
ONEWEB-0674,2023-029AP,2026-05-25T02:48:19.636416,13.14502782,.000209,87.8934,294.3212,86.8060,273.3309,0,U,55833,999,15638,-.21394E-3,-.67E-6,0
ONEWEB-0675,2023-029AQ,2026-05-25T03:48:52.257888,13.19726696,.0001724,87.9150,309.5680,103.1879,256.9446,0,U,55834,999,15588,.30218E-3,.134E-5,0
ONEWEB-0720,2023-029AR,2026-05-25T03:37:29.335008,13.19726460,.0001555,87.9150,309.5703,87.3891,272.7420,0,U,55835,999,15580,.86121E-4,.47E-6,0
TIANHUI 6A,2023-030A,2026-05-25T03:51:36.055872,14.01349931,.0002281,99.0136,153.6749,59.7252,300.4138,0,U,55836,999,16417,.26484E-3,.355E-5,0
