ONEWEB-0643             
1 55807U 23029M   26145.15653265  .00000127  00000+0  30687-3 0  9998
2 55807  87.8931 294.3250 0001174 105.7149 254.4111 13.14502093156365
ONEWEB-0644             
1 55808U 23029N   26145.19683404 -.00000048  00000+0 -15304-3 0  9994
2 55808  87.9149 309.5622 0001437  92.6911 267.4386 13.19725737155873
ONEWEB-0645             
1 55809U 23029P   26144.91568744 -.00000008  00000+0 -53267-4 0  9990
2 55809  87.9149 309.6153 0001619  78.4042 281.7272 13.19726782155833
ONEWEB-0646             
1 55810U 23029Q   26145.16052352  .00000052  00000+0  97133-4 0  9990
2 55810  87.9150 309.5664 0001509  92.8091 267.3214 13.19725847155854
ONEWEB-0648             
1 55811U 23029R   26145.12481455 -.00000089  00000+0 -27517-3 0  9997
2 55811  87.8943 294.3023 0001272  67.8136 292.3129 13.14504666156362
ONEWEB-0649             
1 55812U 23029S   26145.18578928  .00000101  00000+0  21955-3 0  9999
2 55812  87.9151 309.5591 0001637  86.5088 273.6231 13.19726113155894
ONEWEB-0650             
1 55813U 23029T   26145.18105367  .00000057  00000+0  10926-3 0  9999
2 55813  87.9149 309.5626 0001357  89.7444 270.3844 13.19725732155868
ONEWEB-0652             
1 55814U 23029U   26145.10579010  .00000152  00000+0  37581-3 0  9994
2 55814  87.8935 294.3148 0001937 100.3179 259.8170 13.14504191156336
ONEWEB-0653             
1 55815U 23029V   26145.16603904  .00000241  00000+0  61550-3 0  9993
2 55815  87.8942 294.3000 0001887  95.6525 264.4820 13.14501774156379
ONEWEB-0654             
1 55816U 23029W   26145.16129075  .00000166  00000+0  41244-3 0  9990
2 55816  87.8941 294.2972 0002189  99.2138 260.9240 13.14502106156391
ONEWEB-0656             
1 55817U 23029X   26144.79557304  .00000022  00000+0  23372-4 0  9993
2 55817  87.9178 279.0929 0002326 102.0931 258.0463 13.20771317158065
ONEWEB-0657             
1 55818U 23029Y   26145.17631698  .00000077  00000+0  15990-3 0  9992
2 55818  87.9150 309.5621 0002045 113.8105 246.3243 13.19726055155874
ONEWEB-0658             
1 55819U 23029Z   26145.17157683  .00000124  00000+0  27687-3 0  9999
2 55819  87.9158 309.5367 0001382  91.4917 268.6374 13.19726458155885
ONEWEB-0660             
1 55820U 23029AA  26145.13908053 -.00000180  00000+0 -51999-3 0  9999
2 55820  87.8947 294.2928 0001759  86.6963 273.4368 13.14501878156374
ONEWEB-0661             
1 55821U 23029AB  26145.17397044  .00000212  00000+0  53757-3 0  9994
2 55821  87.8931 294.3345 0001885  87.5114 272.6231 13.14501474156361
ONEWEB-0662             
1 55822U 23029AC  26145.13272903 -.00000192  00000+0 -55265-3 0  9992
2 55822  87.8931 294.3492 0001758  86.6894 273.4437 13.14501447156401
ONEWEB-0663             
1 55823U 23029AD  26145.13397429  .00000000  00000+0 -32252-4 0  9993
2 55823  87.9178 279.0978 0001567  88.1048 272.0265 13.20867351158100
ONEWEB-0664             
1 55824U 23029AE  26144.63056505  .00000130  00000+0  28877-3 0  9995
2 55824  87.9161 279.1817 0002199  88.3996 271.7389 13.20771288158030
ONEWEB-0665             
1 55825U 23029AF  26145.17080375  .00000287  00000+0  74075-3 0  9992
2 55825  87.8934 294.3159 0001665  88.1752 271.9568 13.14501630156383
ONEWEB-0666             
1 55826U 23029AG  26145.07836493 -.00000544  00000+0 -13706-2 0  9993
2 55826  87.9163 279.0821 0002086 119.1856 240.9486 13.20772701158106
ONEWEB-0667             
1 55827U 23029AH  26144.92183119 -.00000080  00000+0 -22979-3 0  9995
2 55827  87.9181 279.0679 0001868  93.5339 266.6008 13.20768894158075
ONEWEB-0669             
1 55828U 23029AJ  26145.06827925  .00000002  00000+0 -26028-4 0  9995
2 55828  87.9171 279.0516 0002445  97.8408 262.3003 13.20770438158098
ONEWEB-0670             
1 55829U 23029AK  26145.14859542 -.00000016  00000+0 -76895-4 0  9998
2 55829  87.8930 294.3379 0002025  86.5182 273.6179 13.14501851156402
ONEWEB-0671             
1 55830U 23029AL  26145.16682649  .00000049  00000+0  91152-4 0  9991
2 55830  87.9149 309.5654 0001795  87.8933 272.2405 13.19726743155863
ONEWEB-0672             
1 55831U 23029AM  26145.13898279  .00000005  00000+0 -20232-4 0  9991
2 55831  87.9175 279.0302 0002083 105.0439 255.0925 13.20770947158102
ONEWEB-0673             
1 55832U 23029AN  26144.99229954  .00000010  00000+0 -62568-5 0  9998
2 55832  87.9168 309.5893 0002026 101.0866 259.0495 13.19722937155844
ONEWEB-0674             
1 55833U 23029AP  26145.11689394 -.00000067  00000+0 -21394-3 0  9995
2 55833  87.8934 294.3212 0002090  86.8060 273.3309 13.14502782156380
ONEWEB-0675             
1 55834U 23029AQ  26145.15893817  .00000134  00000+0  30218-3 0  9995
2 55834  87.9150 309.5680 0001724 103.1879 256.9446 13.19726696155884
ONEWEB-0720             
1 55835U 23029AR  26145.15103397  .00000047  00000+0  86121-4 0  9991
2 55835  87.9150 309.5703 0001555  87.3891 272.7420 13.19726460155809
TIANHUI 6A              
1 55836U 23030A   26145.16083398  .00000355  00000+0  26484-3 0  9990
2 55836  99.0136 153.6749 0002281  59.7252 300.4138 14.01349931164178
